ONEWEB-0634             
1 56075U 23043AF  24172.57321105 -.00011229  00000+0 -29874-1 0  9992
2 56075  87.9043  43.8146 0001183  75.1428 284.9833 13.15602072 60866
ONEWEB-0635             
1 56076U 23043AG  24172.56848768  .00000132  00000+0  31560-3 0  9997
2 56076  87.9038  43.8705 0002074  93.4472 266.6896 13.15549842 60898
ONEWEB-0636             
1 56077U 23043AH  24172.56055838  .00000190  00000+0  47052-3 0  9993
2 56077  87.9039  43.8416 0002019  92.4056 267.7306 13.15550607 60872
ONEWEB-0637             
1 56078U 23043AJ  24172.63028162  .00000112  00000+0  26387-3 0  9994
2 56078  87.9040  43.8042 0001975  94.6393 265.4962 13.15548954 60907
ONEWEB-0647             
1 56079U 23043AK  24172.62552985  .00000114  00000+0  26873-3 0  9991
2 56079  87.9036  43.8237 0002067  89.1715 270.9652 13.15549423 60896
ONEWEB-0651             
1 56080U 23043AL  24172.62077531  .00000093  00000+0  21236-3 0  9996
2 56080  87.9039  43.8015 0001824  94.8338 265.3001 13.15549371 62091
ONEWEB-0718             
1 56081U 23043AM  24172.61601253  .00000058  00000+0  12128-3 0  9991
2 56081  87.9039  43.7887 0001499  65.3638 294.7649 13.15550861 60900
ONEWEB-0561             
1 56710U 23068A   24172.69015326  .00000094  00000+0  20003-3 0  9996
2 56710  87.9224  59.0184 0002338  96.6641 263.4759 13.20770563 54300
